ONEWEB-0235             
1 48771U 21045E   24306.71777295  .00000084  00000+0  18891-3 0  9990
2 48771  87.9112  17.1262 0002375  89.6929 270.4474 13.15546936166482
ONEWEB-0242             
1 48772U 21045F   24306.71144201 -.00000002  00000+0 -38945-4 0  9991
2 48772  87.9114  17.1141 0002020  98.1180 262.0179 13.15548015166526
ONEWEB-0241             
1 48773U 21045G   24306.92693377 -.00000053  00000+0 -17611-3 0  9990
2 48773  87.9125  17.1312 0001892  87.0020 273.1327 13.15548023166465
ONEWEB-0243             
1 48774U 21045H   24306.73045371  .00000234  00000+0  58720-3 0  9990
2 48774  87.9125  17.1306 0002264  93.1688 266.9701 13.15548050166467
ONEWEB-0222             
1 48775U 21045J   24306.71380205  .00000077  00000+0  17077-3 0  9992
2 48775  87.9113  17.1225 0001878  91.9874 268.1471 13.15546997166509
ONEWEB-0244             
1 48776U 21045K   24306.89206442  .00000242  00000+0  60904-3 0  9993
2 48776  87.9110  17.0677 0001975 100.4293 259.7060 13.15547764167094
ONEWEB-0247             
1 48777U 21045L   24306.73679057  .00000200  00000+0  49784-3 0  9990
2 48777  87.9121  17.1505 0002743  89.6283 270.5161 13.15547090166510
ONEWEB-0245             
1 48778U 21045M   24306.73204986  .00000176  00000+0  43471-3 0  9995
2 48778  87.9115  17.1319 0001795  90.6587 269.4749 13.15549057166482
